{
  "type": "FeatureCollection",
  "features": [
    {
      "type": "Feature",
      "properties": {
        "norad_id": 66800,
        "name": "STARLINK-35996",
        "group": "last-30-days",
        "lat": 41.878289627619424,
        "lon": -83.86677779311647,
        "alt_km": 409.5864034588958,
        "timestamp": "2025-12-26T09:30:52.342091+00:00",
        "meta_object_name": "STARLINK-35996",
        "meta_object_id": "2025-278K",
        "meta_epoch": "2025-12-26T04:00:01.998720",
        "meta_mean_motion": 15.50538491,
        "meta_eccentricity": 0.0001664,
        "meta_inclination": 43.0003,
        "meta_ra_of_asc_node": 171.658,
        "meta_arg_of_pericenter": 273.2483,
        "meta_mean_anomaly": 344.4612,
        "meta_ephemeris_type": 0,
        "meta_classification_type": "U",
        "meta_norad_cat_id": 66800,
        "meta_element_set_no": 999,
        "meta_rev_at_epoch": 490,
        "meta_bstar": 0.00033601,
        "meta_mean_motion_dot": 0.00019391,
        "meta_mean_motion_ddot": 0,
        "tle_line1": "1 66800U 25278K   25360.16668980  .00019391  00000+0  33601-3 0  9992",
        "tle_line2": "2 66800  43.0003 171.6580 0001664 273.2483 344.4612 15.50538491  4904"
      },
      "geometry": {
        "type": "Point",
        "coordinates": [
          -83.86677779311647,
          41.878289627619424
        ]
      }
    },
    {
      "type": "Feature",
      "properties": {
        "norad_id": 66801,
        "name": "STARLINK-36080",
        "group": "last-30-days",
        "lat": 39.54013127391111,
        "lon": -72.0693686979001,
        "alt_km": 412.5141787619086,
        "timestamp": "2025-12-26T09:30:52.342101+00:00",
        "meta_object_name": "STARLINK-36080",
        "meta_object_id": "2025-278L",
        "meta_epoch": "2025-12-26T00:00:02.000160",
        "meta_mean_motion": 15.50967011,
        "meta_eccentricity": 0.0002091,
        "meta_inclination": 43.0002,
        "meta_ra_of_asc_node": 172.6094,
        "meta_arg_of_pericenter": 283.7207,
        "meta_mean_anomaly": 132.0187,
        "meta_ephemeris_type": 0,
        "meta_classification_type": "U",
        "meta_norad_cat_id": 66801,
        "meta_element_set_no": 999,
        "meta_rev_at_epoch": 509,
        "meta_bstar": -0.025225,
        "meta_mean_motion_dot": -0.01351133,
        "meta_mean_motion_ddot": 0,
        "tle_line1": "1 66801U 25278L   25360.00002315 -.01351133  00000+0 -25225-1 0  9997",
        "tle_line2": "2 66801  43.0002 172.6094 0002091 283.7207 132.0187 15.50967011  5093"
      },
      "geometry": {
        "type": "Point",
        "coordinates": [
          -72.0693686979001,
          39.54013127391111
        ]
      }
    },
    {
      "type": "Feature",
      "properties": {
        "norad_id": 66802,
        "name": "STARLINK-35604",
        "group": "last-30-days",
        "lat": 42.20822513007218,
        "lon": -86.42059200670485,
        "alt_km": 409.5608948416857,
        "timestamp": "2025-12-26T09:30:52.342112+00:00",
        "meta_object_name": "STARLINK-35604",
        "meta_object_id": "2025-278M",
        "meta_epoch": "2025-12-26T04:00:01.998720",
        "meta_mean_motion": 15.50545307,
        "meta_eccentricity": 0.0001719,
        "meta_inclination": 43.0002,
        "meta_ra_of_asc_node": 171.6623,
        "meta_arg_of_pericenter": 273.2437,
        "meta_mean_anomaly": 342.5346,
        "meta_ephemeris_type": 0,
        "meta_classification_type": "U",
        "meta_norad_cat_id": 66802,
        "meta_element_set_no": 999,
        "meta_rev_at_epoch": 511,
        "meta_bstar": 0.00029028,
        "meta_mean_motion_dot": 0.00016703,
        "meta_mean_motion_ddot": 0,
        "tle_line1": "1 66802U 25278M   25360.16668980  .00016703  00000+0  29028-3 0  9996",
        "tle_line2": "2 66802  43.0002 171.6623 0001719 273.2437 342.5346 15.50545307  5114"
      },
      "geometry": {
        "type": "Point",
        "coordinates": [
          -86.42059200670485,
          42.20822513007218
        ]
      }
    },
    {
      "type": "Feature",
      "properties": {
        "norad_id": 66803,
        "name": "STARLINK-35565",
        "group": "last-30-days",
        "lat": 34.44952696543403,
        "lon": -142.1727876221791,
        "alt_km": 439.6096542704072,
        "timestamp": "2025-12-26T09:30:52.342122+00:00",
        "meta_object_name": "STARLINK-35565",
        "meta_object_id": "2025-278N",
        "meta_epoch": "2025-12-26T04:00:01.998720",
        "meta_mean_motion": 15.4068079,
        "meta_eccentricity": 0.0001898,
        "meta_inclination": 43.0005,
        "meta_ra_of_asc_node": 171.748,
        "meta_arg_of_pericenter": 273.8571,
        "meta_mean_anomaly": 306.4389,
        "meta_ephemeris_type": 0,
        "meta_classification_type": "U",
        "meta_norad_cat_id": 66803,
        "meta_element_set_no": 999,
        "meta_rev_at_epoch": 520,
        "meta_bstar": 8.4778e-05,
        "meta_mean_motion_dot": 3.237e-05,
        "meta_mean_motion_ddot": 0,
        "tle_line1": "1 66803U 25278N   25360.16668980  .00003237  00000+0  84778-4 0  9999",
        "tle_line2": "2 66803  43.0005 171.7480 0001898 273.8571 306.4389 15.40680790  5204"
      },
      "geometry": {
        "type": "Point",
        "coordinates": [
          -142.1727876221791,
          34.44952696543403
        ]
      }
    },
    {
      "type": "Feature",
      "properties": {
        "norad_id": 66804,
        "name": "STARLINK-36038",
        "group": "last-30-days",
        "lat": 39.30688718062124,
        "lon": -128.13450408963996,
        "alt_km": 436.2125836342957,
        "timestamp": "2025-12-26T09:30:52.342134+00:00",
        "meta_object_name": "STARLINK-36038",
        "meta_object_id": "2025-278P",
        "meta_epoch": "2025-12-26T04:00:01.998720",
        "meta_mean_motion": 15.42920048,
        "meta_eccentricity": 0.0001296,
        "meta_inclination": 42.9998,
        "meta_ra_of_asc_node": 171.7227,
        "meta_arg_of_pericenter": 258.5338,
        "meta_mean_anomaly": 332.6882,
        "meta_ephemeris_type": 0,
        "meta_classification_type": "U",
        "meta_norad_cat_id": 66804,
        "meta_element_set_no": 999,
        "meta_rev_at_epoch": 511,
        "meta_bstar": -0.065886,
        "meta_mean_motion_dot": -0.02606695,
        "meta_mean_motion_ddot": 0,
        "tle_line1": "1 66804U 25278P   25360.16668980 -.02606695  00000+0 -65886-1 0  9997",
        "tle_line2": "2 66804  42.9998 171.7227 0001296 258.5338 332.6882 15.42920048  5110"
      },
      "geometry": {
        "type": "Point",
        "coordinates": [
          -128.13450408963996,
          39.30688718062124
        ]
      }
    },
    {
      "type": "Feature",
      "properties": {
        "norad_id": 66805,
        "name": "STARLINK-36049",
        "group": "last-30-days",
        "lat": 42.979973146391586,
        "lon": -99.62214099263811,
        "alt_km": 429.5106735958343,
        "timestamp": "2025-12-26T09:30:52.342144+00:00",
        "meta_object_name": "STARLINK-36049",
        "meta_object_id": "2025-278Q",
        "meta_epoch": "2025-12-26T04:00:01.998720",
        "meta_mean_motion": 15.44678807,
        "meta_eccentricity": 0.0001158,
        "meta_inclination": 43.0003,
        "meta_ra_of_asc_node": 171.6751,
        "meta_arg_of_pericenter": 265.8552,
        "meta_mean_anomaly": 345.4762,
        "meta_ephemeris_type": 0,
        "meta_classification_type": "U",
        "meta_norad_cat_id": 66805,
        "meta_element_set_no": 999,
        "meta_rev_at_epoch": 511,
        "meta_bstar": -0.048332,
        "meta_mean_motion_dot": -0.02051597,
        "meta_mean_motion_ddot": 0,
        "tle_line1": "1 66805U 25278Q   25360.16668980 -.02051597  00000+0 -48332-1 0  9990",
        "tle_line2": "2 66805  43.0003 171.6751 0001158 265.8552 345.4762 15.44678807  5111"
      },
      "geometry": {
        "type": "Point",
        "coordinates": [
          -99.62214099263811,
          42.979973146391586
        ]
      }
    },
    {
      "type": "Feature",
      "properties": {
        "norad_id": 66806,
        "name": "STARLINK-36069",
        "group": "last-30-days",
        "lat": 40.56529853657407,
        "lon": -76.43104806255558,
        "alt_km": 409.77859175019694,
        "timestamp": "2025-12-26T09:30:52.342154+00:00",
        "meta_object_name": "STARLINK-36069",
        "meta_object_id": "2025-278R",
        "meta_epoch": "2025-12-26T04:00:01.998720",
        "meta_mean_motion": 15.50591661,
        "meta_eccentricity": 0.000185,
        "meta_inclination": 43.0003,
        "meta_ra_of_asc_node": 171.643,
        "meta_arg_of_pericenter": 268.6911,
        "meta_mean_anomaly": 354.7333,
        "meta_ephemeris_type": 0,
        "meta_classification_type": "U",
        "meta_norad_cat_id": 66806,
        "meta_element_set_no": 999,
        "meta_rev_at_epoch": 490,
        "meta_bstar": -0.00046677,
        "meta_mean_motion_dot": -0.00027641,
        "meta_mean_motion_ddot": 0,
        "tle_line1": "1 66806U 25278R   25360.16668980 -.00027641  00000+0 -46677-3 0  9994",
        "tle_line2": "2 66806  43.0003 171.6430 0001850 268.6911 354.7333 15.50591661  4907"
      },
      "geometry": {
        "type": "Point",
        "coordinates": [
          -76.43104806255558,
          40.56529853657407
        ]
      }
    }
  ]
}